0 COSMOS 2251 DEB
1 35829U 93036ATB 13281.29330009  .00001649  00000-0  55672-3 0  3801
2 35829 074.0405 142.6589 0020047 228.9181 250.1800 14.37625988235221
0 COSMOS 2251 DEB
1 35829U 93036ATB 13283.31192279  .00001888  00000-0  63601-3 0  3818
2 35829 074.0403 138.9445 0019982 224.7478 257.4594 14.37639441235518
0 COSMOS 2251 DEB
1 35829U 93036ATB 13285.94470105  .00001990  00000-0  66962-3 0  3824
2 35829 074.0399 134.1001 0019881 219.3155 203.3753 14.37647977235888
0 COSMOS 2251 DEB
1 35829U 93036ATB 13289.91135567  .00002696  00000-0  90381-3 0  3832
2 35829 074.0398 126.8000 0019687 211.3013 212.7985 14.37670196236457
0 COSMOS 2251 DEB
1 35829U 93036ATB 13291.93029117  .00003152  00000-0  10549-2 0  3846
2 35829 074.0401 123.0863 0019671 207.0764 222.0893 14.37679353236744
0 COSMOS 2251 DEB
1 35829U 93036ATB 13295.21090397  .00004183  00000-0  13964-2 0  3859
2 35829 074.0409 117.0489 0019543 200.2325 281.5134 14.37698785237227
